[{"OBJECT_NAME":"HAWK-12C","OBJECT_ID":"2025-138A","EPOCH":"2026-03-09T22:54:55.356768","MEAN_MOTION":15.17353041,"ECCENTRICITY":0.00157924,"INCLINATION":97.4363,"RA_OF_ASC_NODE":73.1446,"ARG_OF_PERICENTER":124.4693,"MEAN_ANOMALY":235.8035,"EPHEMERIS_TYPE":0,"CLASSIFICATION_TYPE":"U","NORAD_CAT_ID":64621,"ELEMENT_SET_NO":999,"REV_AT_EPOCH":3881,"BSTAR":0.00031482945,"MEAN_MOTION_DOT":6.237e-5,"MEAN_MOTION_DDOT":0},{"OBJECT_NAME":"FLOCK 4H-21","OBJECT_ID":"2025-276BL","EPOCH":"2026-03-09T18:08:07.908576","MEAN_MOTION":15.19629565,"ECCENTRICITY":0.00010528,"INCLINATION":97.425,"RA_OF_ASC_NODE":144.1168,"ARG_OF_PERICENTER":302.6819,"MEAN_ANOMALY":57.4314,"EPHEMERIS_TYPE":0,"CLASSIFICATION_TYPE":"U","NORAD_CAT_ID":66724,"ELEMENT_SET_NO":999,"REV_AT_EPOCH":1458,"BSTAR":0.00036207016,"MEAN_MOTION_DOT":7.65e-5,"MEAN_MOTION_DDOT":0}]
